[{"OBJECT_NAME":"STARLINK-1477","OBJECT_ID":"2020-038AA","EPOCH":"2026-03-09T15:11:57.486336","MEAN_MOTION":15.14348726,"ECCENTRICITY":5.98e-5,"INCLINATION":53.0515,"RA_OF_ASC_NODE":213.2201,"ARG_OF_PERICENTER":95.7123,"MEAN_ANOMALY":264.3937,"EPHEMERIS_TYPE":0,"CLASSIFICATION_TYPE":"U","NORAD_CAT_ID":45754,"ELEMENT_SET_NO":999,"REV_AT_EPOCH":31652,"BSTAR":0.0019315,"MEAN_MOTION_DOT":0.00035702,"MEAN_MOTION_DDOT":0},{"OBJECT_NAME":"STARLINK-5690","OBJECT_ID":"2023-015AH","EPOCH":"2026-03-09T22:00:01.999584","MEAN_MOTION":15.14430175,"ECCENTRICITY":0.00019521,"INCLINATION":43.0002,"RA_OF_ASC_NODE":337.2039,"ARG_OF_PERICENTER":258.0458,"MEAN_ANOMALY":99.5541,"EPHEMERIS_TYPE":0,"CLASSIFICATION_TYPE":"U","NORAD_CAT_ID":55480,"ELEMENT_SET_NO":999,"REV_AT_EPOCH":577,"BSTAR":0.0026064123,"MEAN_MOTION_DOT":0.00048862,"MEAN_MOTION_DDOT":0}]
